$$SOE
2461302.500000000, A.D. 2026-Sep-19 00:00:00.0000, -1.973231156362562E+08, 3.271486771343030E+08, 5.860209557086974E+05,
2461309.500000000, A.D. 2026-Sep-26 00:00:00.0000, -2.075080312427157E+08, 3.253783283545074E+08, 1.331452677874625E+06,
2461316.500000000, A.D. 2026-Oct-03 00:00:00.0000, -2.175178815194957E+08, 3.233332572586116E+08, 2.075767796936899E+06,
2461323.500000000, A.D. 2026-Oct-10 00:00:00.0000, -2.273495058734356E+08, 3.210230608875880E+08, 2.818387745545998E+06,
2461330.500000000, A.D. 2026-Oct-17 00:00:00.0000, -2.370000389334107E+08, 3.184569768205662E+08, 3.558767354932427E+06,
2461337.500000000, A.D. 2026-Oct-24 00:00:00.0000, -2.464668811246448E+08, 3.156438999329491E+08, 4.296392248170003E+06,
2461344.500000000, A.D. 2026-Oct-31 00:00:00.0000, -2.557476720370225E+08, 3.125923985468930E+08, 5.030776420387208E+06,
2461351.500000000, A.D. 2026-Nov-07 00:00:00.0000, -2.648402659505856E+08, 3.093107299914679E+08, 5.761459963596657E+06,
2461358.500000000, A.D. 2026-Nov-14 00:00:00.0000, -2.737427090511210E+08, 3.058068564225022E+08, 6.488006974271402E+06,
2461365.500000000, A.D. 2026-Nov-21 00:00:00.0000, -2.824532199130144E+08, 3.020884615633685E+08, 7.210003850125194E+06,
2461372.500000000, A.D. 2026-Nov-28 00:00:00.0000, -2.909701740374069E+08, 2.981629653483906E+08, 7.927057807895169E+06,
2461379.500000000, A.D. 2026-Dec-05 00:00:00.0000, -2.992920886304767E+08, 2.940375358072202E+08, 8.638795225330353E+06,
2461386.500000000, A.D. 2026-Dec-12 00:00:00.0000, -3.074176072860149E+08, 2.897191013046812E+08, 9.344860035647660E+06,
2461393.500000000, A.D. 2026-Dec-19 00:00:00.0000, -3.153454863111095E+08, 2.852143631563551E+08, 1.004491233723728E+07,
2461400.500000000, A.D. 2026-Dec-26 00:00:00.0000, -3.230745827003660E+08, 2.805298077686578E+08, 1.073862715114371E+07,
2461407.500000000, A.D. 2027-Jan-02 00:00:00.0000, -3.306038433580075E+08, 2.756717181290139E+08, 1.142569327690378E+07,
2461414.500000000, A.D. 2027-Jan-09 00:00:00.0000, -3.379322953398775E+08, 2.706461846830969E+08, 1.210581222987568E+07,
2461421.500000000, A.D. 2027-Jan-16 00:00:00.0000, -3.450590369829457E+08, 2.654591156257568E+08, 1.277869725037749E+07,
2461428.500000000, A.D. 2027-Jan-23 00:00:00.0000, -3.519832297921874E+08, 2.601162465861032E+08, 1.344407237057486E+07,
2461435.500000000, A.D. 2027-Jan-30 00:00:00.0000, -3.587040908230720E+08, 2.546231496819846E+08, 1.410167151187843E+07,
2461442.500000000, A.D. 2027-Feb-06 00:00:00.0000, -3.652208850677341E+08, 2.489852423085581E+08, 1.475123759599112E+07,
2461449.500000000, A.D. 2027-Feb-13 00:00:00.0000, -3.715329182435359E+08, 2.432077969048319E+08, 1.539252180618568E+07,
2461456.500000000, A.D. 2027-Feb-20 00:00:00.0000, -3.776395322925303E+08, 2.372959509306924E+08, 1.602528314597419E+07,
2461463.500000000, A.D. 2027-Feb-27 00:00:00.0000, -3.835401021445044E+08, 2.312547138638595E+08, 1.664928789993857E+07,
2461470.500000000, A.D. 2027-Mar-06 00:00:00.0000, -3.892340306765114E+08, 2.250889731586484E+08, 1.726430887298213E+07,
2461477.500000000, A.D. 2027-Mar-13 00:00:00.0000, -3.947207434283870E+08, 2.188035012332599E+08, 1.787012471850263E+07,
2461484.500000000, A.D. 2027-Mar-20 00:00:00.0000, -3.999996841698507E+08, 2.124029626710983E+08, 1.846651938740233E+07,
2461491.500000000, A.D. 2027-Mar-27 00:00:00.0000, -4.050703110852581E+08, 2.058919211081381E+08, 1.905328163151368E+07,
2461498.500000000, A.D. 2027-Apr-03 00:00:00.0000, -4.099320933431566E+08, 1.992748457783288E+08, 1.963020453621490E+07,
2461505.500000000, A.D. 2027-Apr-10 00:00:00.0000, -4.145845079621597E+08, 1.925561177587945E+08, 2.019708507600387E+07,
2461512.500000000, A.D. 2027-Apr-17 00:00:00.0000, -4.190270369263722E+08, 1.857400359184198E+08, 2.075372368752195E+07,
2461519.500000000, A.D. 2027-Apr-24 00:00:00.0000, -4.232591644487389E+08, 1.788308225247691E+08, 2.129992384554133E+07,
2461526.500000000, A.D. 2027-May-01 00:00:00.0000, -4.272803740623027E+08, 1.718326285534623E+08, 2.183549161473864E+07,
2461533.500000000, A.D. 2027-May-08 00:00:00.0000, -4.310901452134776E+08, 1.647495394638073E+08, 2.236023520840649E+07,
2461540.500000000, A.D. 2027-May-15 00:00:00.0000, -4.346879508381668E+08, 1.575855824086969E+08, 2.287396476762362E+07,
2461547.500000000, A.D. 2027-May-22 00:00:00.0000, -4.380732574716095E+08, 1.503447323021185E+08, 2.337649229099146E+07,
2461554.500000000, A.D. 2027-May-29 00:00:00.0000, -4.412455245230637E+08, 1.430309152917896E+08, 2.386763128587000E+07,
2461561.500000000, A.D. 2027-Jun-05 00:00:00.0000, -4.442042018162328E+08, 1.356480127821964E+08, 2.434719631470808E+07,
2461568.500000000, A.D. 2027-Jun-12 00:00:00.0000, -4.469487273921912E+08, 1.281998664516358E+08, 2.481500265469621E+07,
2461575.500000000, A.D. 2027-Jun-19 00:00:00.0000, -4.494785258981526E+08, 1.206902833413938E+08, 2.527086602367527E+07,
2461582.500000000, A.D. 2027-Jun-26 00:00:00.0000, -4.517930072750451E+08, 1.131230407694649E+08, 2.571460232448509E+07,
2461589.500000000, A.D. 2027-Jul-03 00:00:00.0000, -4.538915656043012E+08, 1.055018910902041E+08, 2.614602739558627E+07,
2461596.500000000, A.D. 2027-Jul-10 00:00:00.0000, -4.557735780704805E+08, 9.783056632122797E+07, 2.656495676463220E+07,
2461603.500000000, A.D. 2027-Jul-17 00:00:00.0000, -4.574384039978902E+08, 9.011278261113931E+07, 2.697120539790003E+07,
2461610.500000000, A.D. 2027-Jul-24 00:00:00.0000, -4.588853838002231E+08, 8.235224449769937E+07, 2.736458742557356E+07,
2461617.500000000, A.D. 2027-Jul-31 00:00:00.0000, -4.601138374279690E+08, 7.455264920441657E+07, 2.774491582390073E+07,
2461624.500000000, A.D. 2027-Aug-07 00:00:00.0000, -4.611230625112218E+08, 6.671769213964222E+07, 2.811200216625681E+07,
2461631.500000000, A.D. 2027-Aug-14 00:00:00.0000, -4.619123344974795E+08, 5.885107335716750E+07, 2.846565663293249E+07,
2461638.500000000, A.D. 2027-Aug-21 00:00:00.0000, -4.624809081666752E+08, 5.095650162778454E+07, 2.880568794754308E+07,
2461645.500000000, A.D. 2027-Aug-28 00:00:00.0000, -4.628280170912591E+08, 4.303769734046483E+07, 2.913190302325830E+07,
2461652.500000000, A.D. 2027-Sep-04 00:00:00.0000, -4.629528722188076E+08, 3.509839674979417E+07, 2.944410663095459E+07,
2461659.500000000, A.D. 2027-Sep-11 00:00:00.0000, -4.628546609704378E+08, 2.714235692107461E+07, 2.974210116228860E+07,
2461666.500000000, A.D. 2027-Sep-18 00:00:00.0000, -4.625325467222155E+08, 1.917336073590704E+07, 3.002568642146695E+07,
2461673.500000000, A.D. 2027-Sep-25 00:00:00.0000, -4.619856684425516E+08, 1.119522189412162E+07, 3.029465941763397E+07,
2461680.500000000, A.D. 2027-Oct-02 00:00:00.0000, -4.612131404143078E+08, 3.211789953769296E+06, 3.054881415263753E+07,
2461687.500000000, A.D. 2027-Oct-09 00:00:00.0000, -4.602140520247344E+08, -4.773044579682408E+06, 3.078794140126902E+07,
2461694.500000000, A.D. 2027-Oct-16 00:00:00.0000, -4.589874675664461E+08, -1.275534515240576E+07, 3.101182847330527E+07,
2461701.500000000, A.D. 2027-Oct-23 00:00:00.0000, -4.575324257959377E+08, -2.073112403650485E+07, 3.122025893268488E+07,
2461708.500000000, A.D. 2027-Oct-30 00:00:00.0000, -4.558479388812089E+08, -2.869633654982696E+07, 3.141301228896588E+07,
2461715.500000000, A.D. 2027-Nov-06 00:00:00.0000, -4.539329919087071E+08, -3.664687347360593E+07, 3.158986385959246E+07,
2461722.500000000, A.D. 2027-Nov-13 00:00:00.0000, -4.517865449441093E+08, -4.457855372455470E+07, 3.175058481509116E+07,
2461729.500000000, A.D. 2027-Nov-20 00:00:00.0000, -4.494075347571910E+08, -5.248711944595793E+07, 3.189494196239451E+07,
2461736.500000000, A.D. 2027-Nov-27 00:00:00.0000, -4.467948746051537E+08, -6.036823052943427E+07, 3.202269736030870E+07,
2461743.500000000, A.D. 2027-Dec-04 00:00:00.0000, -4.439474541096968E+08, -6.821745762930755E+07, 3.213360802735336E+07,
2461750.500000000, A.D. 2027-Dec-11 00:00:00.0000, -4.408641397936538E+08, -7.603027460943542E+07, 3.222742571367922E+07,
2461757.500000000, A.D. 2027-Dec-18 00:00:00.0000, -4.375437760214447E+08, -8.380205073545425E+07, 3.230389668439277E+07,
2461764.500000000, A.D. 2027-Dec-25 00:00:00.0000, -4.339851862129670E+08, -9.152804258585395E+07, 3.236276150062871E+07,
2461771.500000000, A.D. 2028-Jan-01 00:00:00.0000, -4.301871743132583E+08, -9.920338563653794E+07, 3.240375479632811E+07,
$$EOE